OBJECT_NAME,OBJECT_ID,EPOCH,MEAN_MOTION,ECCENTRICITY,INCLINATION,RA_OF_ASC_NODE,ARG_OF_PERICENTER,MEAN_ANOMALY,EPHEMERIS_TYPE,CLASSIFICATION_TYPE,NORAD_CAT_ID,ELEMENT_SET_NO,REV_AT_EPOCH,BSTAR,MEAN_MOTION_DOT,MEAN_MOTION_DDOT
ONEWEB-0667,2023-029AH,2026-07-18T05:44:45.983040,13.20772065,.00020117,87.9185,268.2444,103.3972,256.7386,0,U,55827,999,16524,-.27841546E-3,-.1E-5,0
ONEWEB-0669,2023-029AJ,2026-07-18T14:42:57.109536,13.20770083,.00015696,87.9180,268.1790,88.2081,271.9232,0,U,55828,999,16529,.59847417E-4,.37E-6,0
ONEWEB-0670,2023-029AK,2026-07-18T11:55:15.509856,13.14502863,.00016989,87.8952,283.4998,107.8815,252.2500,0,U,55829,999,16354,-.10610109E-3,-.27E-6,0
ONEWEB-0671,2023-029AL,2026-07-18T07:12:01.618272,13.19726433,.00019756,87.9185,298.7803,105.4229,254.7122,0,U,55830,999,16300,.1995392E-3,.93E-6,0
ONEWEB-0672,2023-029AM,2026-07-18T14:35:41.625888,13.20769988,.00020558,87.9179,268.1738,91.3012,268.8357,0,U,55831,999,16529,.93206054E-4,.51E-6,0
ONEWEB-0673,2023-029AN,2026-07-18T12:06:34.600032,13.19725577,.00019326,87.9191,298.7334,104.6928,255.4419,0,U,55832,999,16303,-.16916143E-3,-.55E-6,0
ONEWEB-0674,2023-029AP,2026-07-18T11:09:34.790400,13.14501904,.00016713,87.8961,283.4833,106.4708,253.6605,0,U,55833,999,16352,.47522252E-3,.189E-5,0
ONEWEB-0675,2023-029AQ,2026-07-18T14:17:22.519392,13.19725094,.00022381,87.9187,298.7232,96.1805,263.9583,0,U,55834,999,16306,.25952591E-3,.117E-5,0
ONEWEB-0720,2023-029AR,2026-07-18T06:49:17.176512,13.19727134,.00022235,87.9184,298.7845,107.3327,252.8049,0,U,55835,999,16294,.23927888E-3,.109E-5,0
ONEWEB-0537,2023-043A,2026-07-18T12:07:42.398112,13.16593717,.00021749,87.9076,222.5504,88.7344,271.4036,0,U,56046,999,16308,.19486909E-3,.87E-6,0
ONEWEB-0538,2023-043B,2026-07-18T11:58:34.946112,13.16593763,.00023331,87.9077,222.5543,93.0185,267.1213,0,U,56047,999,16309,-.1352962E-4,.8E-7,0
ONEWEB-0546,2023-043C,2026-07-18T02:33:09.888480,13.16594006,.00022307,87.9078,222.6324,74.8724,285.2654,0,U,56048,999,16303,-.54681315E-4,-.8E-7,0
ONEWEB-0547,2023-043D,2026-07-18T03:10:26.309280,13.21826540,.00022744,87.9234,237.8164,98.4212,261.7180,0,U,56049,999,16231,-.11370129E-3,-.34E-6,0
ONEWEB-0548,2023-043E,2026-07-18T12:15:39.857472,13.16595198,.00016088,87.9076,222.5475,95.0677,265.0637,0,U,56050,999,16308,.26257225E-3,.113E-5,0
ONEWEB-0549,2023-043F,2026-07-18T03:01:57.916128,13.21827769,.00025028,87.9231,237.8222,95.7178,264.4241,0,U,56051,999,16231,.31867378E-3,.145E-5,0
ONEWEB-0550,2023-043G,2026-07-18T08:09:36.631584,13.21827168,.00019255,87.9231,237.7782,98.7379,261.3973,0,U,56052,999,16234,.15140067E-3,.76E-6,0
ONEWEB-0551,2023-043H,2026-07-18T13:36:21.705696,13.15547249,.00024576,87.8977,252.9737,100.2981,259.8427,0,U,56053,999,16052,-.26869883E-3,-.88E-6,0
ONEWEB-0552,2023-043J,2026-07-18T13:29:20.173920,13.21826587,.00021209,87.9231,237.7380,102.3093,257.8279,0,U,56054,999,16237,-.16069736E-3,-.53E-6,0
ONEWEB-0553,2023-043K,2026-07-18T11:49:27.717024,13.16593875,.0001986,87.9074,222.5557,82.7354,277.4003,0,U,56055,999,16309,-.10317467E-3,-.27E-6,0
ONEWEB-0554,2023-043L,2026-07-18T02:24:02.844288,13.16594029,.00015447,87.9075,222.6423,94.8691,265.2616,0,U,56056,999,16302,-.14273317E-3,-.42E-6,0
ONEWEB-0555,2023-043M,2026-07-18T12:25:56.082144,13.16594316,.00020821,87.9078,222.5482,77.3857,282.7507,0,U,56057,999,16308,.87633705E-4,.46E-6,0
ONEWEB-0557,2023-043N,2026-07-18T12:46:27.314976,13.16593493,.00011558,87.9081,222.5552,62.6426,297.4823,0,U,56058,999,16308,-.6227484E-4,-.11E-6,0
ONEWEB-0558,2023-043P,2026-07-18T13:19:39.497664,13.21826097,.00023699,87.9233,237.7354,93.6161,266.5244,0,U,56059,999,16238,-.92970755E-4,-.25E-6,0
ONEWEB-0559,2023-043Q,2026-07-18T03:57:41.650560,13.21823821,.00022691,87.9234,237.8086,101.2827,258.8562,0,U,56060,999,16234,-.22607038E-3,-.8E-6,0
ONEWEB-0566,2023-043R,2026-07-18T12:53:01.290336,13.21824082,.00023378,87.9231,237.7327,100.9997,259.1400,0,U,56061,999,16237,.57013563E-4,.37E-6,0
ONEWEB-0568,2023-043S,2026-07-18T11:22:05.469024,13.16595943,.0002089,87.9076,222.5561,85.2390,274.8980,0,U,56062,999,16309,-.27180594E-3,-.91E-6,0
ONEWEB-0574,2023-043T,2026-07-18T12:43:20.704800,13.21826030,.00018993,87.9238,237.7389,93.7487,266.3864,0,U,56063,999,16241,.92686541E-4,.51E-6,0
ONEWEB-0575,2023-043U,2026-07-18T02:05:47.205888,13.16596555,.00017133,87.9078,222.6291,84.5814,275.5512,0,U,56064,999,16303,.40741847E-4,.28E-6,0
ONEWEB-0576,2023-043V,2026-07-18T01:38:25.211904,13.16596086,.00019032,87.9083,222.6416,90.2801,269.8548,0,U,56065,999,16302,.29183763E-3,.124E-5,0
ONEWEB-0577,2023-043W,2026-07-18T12:44:09.960576,13.16595670,.00013165,87.9082,222.5472,85.3931,274.7350,0,U,56066,999,16311,-.62587081E-4,-.11E-6,0
