ONEWEB-0667             
1 55827U 23029AH  26199.23942110 -.00000100  00000+0 -27842-3 0  9990
2 55827  87.9185 268.2444 0002011 103.3972 256.7386 13.20772065165244
ONEWEB-0669             
1 55828U 23029AJ  26199.61316099  .00000037  00000+0  59847-4 0  9992
2 55828  87.9180 268.1790 0001569  88.2081 271.9232 13.20770083165294
ONEWEB-0670             
1 55829U 23029AK  26199.49670729 -.00000027  00000+0 -10610-3 0  9997
2 55829  87.8952 283.4998 0001698 107.8815 252.2500 13.14502863163545
ONEWEB-0671             
1 55830U 23029AL  26199.30001873  .00000093  00000+0  19954-3 0  9998
2 55830  87.9185 298.7803 0001975 105.4229 254.7122 13.19726433163005
ONEWEB-0672             
1 55831U 23029AM  26199.60812067  .00000051  00000+0  93206-4 0  9994
2 55831  87.9179 268.1738 0002055  91.3012 268.8357 13.20769988165293
ONEWEB-0673             
1 55832U 23029AN  26199.50456713 -.00000055  00000+0 -16916-3 0  9994
2 55832  87.9191 298.7334 0001932 104.6928 255.4419 13.19725577163031
ONEWEB-0674             
1 55833U 23029AP  26199.46498600  .00000189  00000+0  47522-3 0  9994
2 55833  87.8961 283.4833 0001671 106.4708 253.6605 13.14501904163529
ONEWEB-0675             
1 55834U 23029AQ  26199.59539953  .00000117  00000+0  25953-3 0  9991
2 55834  87.9187 298.7232 0002238  96.1805 263.9583 13.19725094163067
ONEWEB-0720             
1 55835U 23029AR  26199.28422658  .00000109  00000+0  23928-3 0  9992
2 55835  87.9184 298.7845 0002223 107.3327 252.8049 13.19727134162940
ONEWEB-0537             
1 56046U 23043A   26199.50535183  .00000087  00000+0  19487-3 0  9996
2 56046  87.9076 222.5504 0002174  88.7344 271.4036 13.16593717163082
ONEWEB-0538             
1 56047U 23043B   26199.49901558  .00000008  00000+0 -13530-4 0  9996
2 56047  87.9077 222.5543 0002333  93.0185 267.1213 13.16593763163097
ONEWEB-0546             
1 56048U 23043C   26199.10636445 -.00000008  00000+0 -54681-4 0  9998
2 56048  87.9078 222.6324 0002230  74.8724 285.2654 13.16594006163034
ONEWEB-0547             
1 56049U 23043D   26199.13224895 -.00000034  00000+0 -11370-3 0  9990
2 56049  87.9234 237.8164 0002274  98.4212 261.7180 13.21826540162311
ONEWEB-0548             
1 56050U 23043E   26199.51087798  .00000113  00000+0  26257-3 0  9999
2 56050  87.9076 222.5475 0001608  95.0677 265.0637 13.16595198163086
ONEWEB-0549             
1 56051U 23043F   26199.12636477  .00000145  00000+0  31867-3 0  9999
2 56051  87.9231 237.8222 0002502  95.7178 264.4241 13.21827769162313
ONEWEB-0550             
1 56052U 23043G   26199.34000731  .00000076  00000+0  15140-3 0  9991
2 56052  87.9231 237.7782 0001925  98.7379 261.3973 13.21827168162342
ONEWEB-0551             
1 56053U 23043H   26199.56691789 -.00000088  00000+0 -26870-3 0  9992
2 56053  87.8977 252.9737 0002457 100.2981 259.8427 13.15547249160523
ONEWEB-0552             
1 56054U 23043J   26199.56203905 -.00000053  00000+0 -16070-3 0  9995
2 56054  87.9231 237.7380 0002120 102.3093 257.8279 13.21826587162377
ONEWEB-0553             
1 56055U 23043K   26199.49268191 -.00000027  00000+0 -10317-3 0  9995
2 56055  87.9074 222.5557 0001986  82.7354 277.4003 13.16593875163099
ONEWEB-0554             
1 56056U 23043L   26199.10003292 -.00000042  00000+0 -14273-3 0  9995
2 56056  87.9075 222.6423 0001544  94.8691 265.2616 13.16594029163022
ONEWEB-0555             
1 56057U 23043M   26199.51801021  .00000046  00000+0  87634-4 0  9991
2 56057  87.9078 222.5482 0002082  77.3857 282.7507 13.16594316163086
ONEWEB-0557             
1 56058U 23043N   26199.53226059 -.00000011  00000+0 -62275-4 0  9994
2 56058  87.9081 222.5552 0001155  62.6426 297.4823 13.16593493163087
ONEWEB-0558             
1 56059U 23043P   26199.55531826 -.00000025  00000+0 -92971-4 0  9999
2 56059  87.9233 237.7354 0002369  93.6161 266.5244 13.21826097162384
ONEWEB-0559             
1 56060U 23043Q   26199.16506540 -.00000080  00000+0 -22607-3 0  9992
2 56060  87.9234 237.8086 0002269 101.2827 258.8562 13.21823821162349
ONEWEB-0566             
1 56061U 23043R   26199.53682049  .00000037  00000+0  57014-4 0  9994
2 56061  87.9231 237.7327 0002337 100.9997 259.1400 13.21824082162372
ONEWEB-0568             
1 56062U 23043S   26199.47367441 -.00000091  00000+0 -27181-3 0  9997
2 56062  87.9076 222.5561 0002089  85.2390 274.8980 13.16595943163090
ONEWEB-0574             
1 56063U 23043T   26199.53010075  .00000051  00000+0  92687-4 0  9991
2 56063  87.9238 237.7389 0001899  93.7487 266.3864 13.21826030162418
ONEWEB-0575             
1 56064U 23043U   26199.08735192  .00000028  00000+0  40742-4 0  9995
2 56064  87.9078 222.6291 0001713  84.5814 275.5512 13.16596555163034
ONEWEB-0576             
1 56065U 23043V   26199.06834736  .00000124  00000+0  29184-3 0  9991
2 56065  87.9083 222.6416 0001903  90.2801 269.8548 13.16596086163024
ONEWEB-0577             
1 56066U 23043W   26199.53067084 -.00000011  00000+0 -62587-4 0  9990
2 56066  87.9082 222.5472 0001316  85.3931 274.7350 13.16595670163116
